{
  "type": "FeatureCollection",
  "features": [
    {
      "type": "Feature",
      "properties": {
        "norad_id": 66918,
        "name": "HULIANWANG DIGUI-108",
        "group": "last-30-days",
        "lat": -22.99508285060552,
        "lon": 65.81754056036897,
        "alt_km": 879.9660029703464,
        "timestamp": "2025-12-20T05:41:48.744187+00:00",
        "meta_object_name": "HULIANWANG DIGUI-108",
        "meta_object_id": "2025-285D",
        "meta_epoch": "2025-12-19T23:00:26.441568",
        "meta_mean_motion": 14.03601587,
        "meta_eccentricity": 0.00066067,
        "meta_inclination": 50.0046,
        "meta_ra_of_asc_node": 87.8232,
        "meta_arg_of_pericenter": 304.1017,
        "meta_mean_anomaly": 55.926,
        "meta_ephemeris_type": 0,
        "meta_classification_type": "U",
        "meta_norad_cat_id": 66918,
        "meta_element_set_no": 999,
        "meta_rev_at_epoch": 192,
        "meta_bstar": 8.251546e-05,
        "meta_mean_motion_dot": -2.1e-07,
        "meta_mean_motion_ddot": 0,
        "tle_line1": "1 66918U 25285D   25353.95863937 -.00000021  00000+0  82515-4 0  9998",
        "tle_line2": "2 66918  50.0046  87.8232 0006606 304.1017  55.9260 14.03601587  1925"
      },
      "geometry": {
        "type": "Point",
        "coordinates": [
          65.81754056036897,
          -22.99508285060552
        ]
      }
    },
    {
      "type": "Feature",
      "properties": {
        "norad_id": 66919,
        "name": "HULIANWANG DIGUI-109",
        "group": "last-30-days",
        "lat": -17.966376180803692,
        "lon": 70.88462940332298,
        "alt_km": 878.0577447715914,
        "timestamp": "2025-12-20T05:41:48.744197+00:00",
        "meta_object_name": "HULIANWANG DIGUI-109",
        "meta_object_id": "2025-285E",
        "meta_epoch": "2025-12-19T22:58:30.247392",
        "meta_mean_motion": 14.03725508,
        "meta_eccentricity": 0.00078748,
        "meta_inclination": 50.007,
        "meta_ra_of_asc_node": 87.8206,
        "meta_arg_of_pericenter": 316.5391,
        "meta_mean_anomaly": 43.4892,
        "meta_ephemeris_type": 0,
        "meta_classification_type": "U",
        "meta_norad_cat_id": 66919,
        "meta_element_set_no": 999,
        "meta_rev_at_epoch": 192,
        "meta_bstar": -1.3497332e-05,
        "meta_mean_motion_dot": -1.73e-06,
        "meta_mean_motion_ddot": 0,
        "tle_line1": "1 66919U 25285E   25353.95729453 -.00000173  00000+0 -13497-4 0  9995",
        "tle_line2": "2 66919  50.0070  87.8206 0007874 316.5391  43.4892 14.03725508  1927"
      },
      "geometry": {
        "type": "Point",
        "coordinates": [
          70.88462940332298,
          -17.966376180803692
        ]
      }
    },
    {
      "type": "Feature",
      "properties": {
        "norad_id": 66920,
        "name": "HULIANWANG DIGUI-110",
        "group": "last-30-days",
        "lat": -14.6691014394658,
        "lon": 73.98567688973283,
        "alt_km": 879.6621733315151,
        "timestamp": "2025-12-20T05:41:48.744220+00:00",
        "meta_object_name": "HULIANWANG DIGUI-110",
        "meta_object_id": "2025-285F",
        "meta_epoch": "2025-12-19T22:57:13.798944",
        "meta_mean_motion": 14.03682017,
        "meta_eccentricity": 0.00055807,
        "meta_inclination": 50.0103,
        "meta_ra_of_asc_node": 87.8218,
        "meta_arg_of_pericenter": 313.6679,
        "meta_mean_anomaly": 46.3763,
        "meta_ephemeris_type": 0,
        "meta_classification_type": "U",
        "meta_norad_cat_id": 66920,
        "meta_element_set_no": 999,
        "meta_rev_at_epoch": 192,
        "meta_bstar": 8.1468134e-05,
        "meta_mean_motion_dot": -2.3e-07,
        "meta_mean_motion_ddot": 0,
        "tle_line1": "1 66920U 25285F   25353.95640971 -.00000023  00000+0  81468-4 0  9990",
        "tle_line2": "2 66920  50.0103  87.8218 0005580 313.6679  46.3763 14.03682017  1924"
      },
      "geometry": {
        "type": "Point",
        "coordinates": [
          73.98567688973283,
          -14.6691014394658
        ]
      }
    },
    {
      "type": "Feature",
      "properties": {
        "norad_id": 66921,
        "name": "HULIANWANG DIGUI-111",
        "group": "last-30-days",
        "lat": -11.227915307557197,
        "lon": 77.0816400563172,
        "alt_km": 878.8125191792969,
        "timestamp": "2025-12-20T05:41:48.744233+00:00",
        "meta_object_name": "HULIANWANG DIGUI-111",
        "meta_object_id": "2025-285G",
        "meta_epoch": "2025-12-19T22:55:54.654816",
        "meta_mean_motion": 14.03631388,
        "meta_eccentricity": 0.0006648,
        "meta_inclination": 50.0119,
        "meta_ra_of_asc_node": 87.82,
        "meta_arg_of_pericenter": 317.4552,
        "meta_mean_anomaly": 42.5837,
        "meta_ephemeris_type": 0,
        "meta_classification_type": "U",
        "meta_norad_cat_id": 66921,
        "meta_element_set_no": 999,
        "meta_rev_at_epoch": 192,
        "meta_bstar": -1.3148234e-05,
        "meta_mean_motion_dot": -1.72e-06,
        "meta_mean_motion_ddot": 0,
        "tle_line1": "1 66921U 25285G   25353.95549369 -.00000172  00000+0 -13148-4 0  9996",
        "tle_line2": "2 66921  50.0119  87.8200 0006648 317.4552  42.5837 14.03631388  1926"
      },
      "geometry": {
        "type": "Point",
        "coordinates": [
          77.0816400563172,
          -11.227915307557197
        ]
      }
    },
    {
      "type": "Feature",
      "properties": {
        "norad_id": 66922,
        "name": "HULIANWANG DIGUI-112",
        "group": "last-30-days",
        "lat": -7.376101352641675,
        "lon": 80.4181632199135,
        "alt_km": 878.2017849950998,
        "timestamp": "2025-12-20T05:41:48.744246+00:00",
        "meta_object_name": "HULIANWANG DIGUI-112",
        "meta_object_id": "2025-285H",
        "meta_epoch": "2025-12-19T22:54:28.488096",
        "meta_mean_motion": 14.03661351,
        "meta_eccentricity": 0.00064758,
        "meta_inclination": 50.0092,
        "meta_ra_of_asc_node": 87.8081,
        "meta_arg_of_pericenter": 328.1374,
        "meta_mean_anomaly": 31.9138,
        "meta_ephemeris_type": 0,
        "meta_classification_type": "U",
        "meta_norad_cat_id": 66922,
        "meta_element_set_no": 999,
        "meta_rev_at_epoch": 192,
        "meta_bstar": 7.74024e-07,
        "meta_mean_motion_dot": -1.5e-06,
        "meta_mean_motion_ddot": 0,
        "tle_line1": "1 66922U 25285H   25353.95449639 -.00000150  00000+0  77402-6 0  9996",
        "tle_line2": "2 66922  50.0092  87.8081 0006475 328.1374  31.9138 14.03661351  1922"
      },
      "geometry": {
        "type": "Point",
        "coordinates": [
          80.4181632199135,
          -7.376101352641675
        ]
      }
    },
    {
      "type": "Feature",
      "properties": {
        "norad_id": 66923,
        "name": "HULIANWANG DIGUI-113",
        "group": "last-30-days",
        "lat": -3.093802912345767,
        "lon": 84.04677049279387,
        "alt_km": 878.8100398620945,
        "timestamp": "2025-12-20T05:41:48.744256+00:00",
        "meta_object_name": "HULIANWANG DIGUI-113",
        "meta_object_id": "2025-285J",
        "meta_epoch": "2025-12-19T22:52:53.455008",
        "meta_mean_motion": 14.03699409,
        "meta_eccentricity": 0.00050921,
        "meta_inclination": 50.009,
        "meta_ra_of_asc_node": 87.8036,
        "meta_arg_of_pericenter": 322.7454,
        "meta_mean_anomaly": 37.3096,
        "meta_ephemeris_type": 0,
        "meta_classification_type": "U",
        "meta_norad_cat_id": 66923,
        "meta_element_set_no": 999,
        "meta_rev_at_epoch": 192,
        "meta_bstar": -1.4774216e-05,
        "meta_mean_motion_dot": -1.75e-06,
        "meta_mean_motion_ddot": 0,
        "tle_line1": "1 66923U 25285J   25353.95339647 -.00000175  00000+0 -14774-4 0  9993",
        "tle_line2": "2 66923  50.0090  87.8036 0005092 322.7454  37.3096 14.03699409  1922"
      },
      "geometry": {
        "type": "Point",
        "coordinates": [
          84.04677049279387,
          -3.093802912345767
        ]
      }
    },
    {
      "type": "Feature",
      "properties": {
        "norad_id": 66924,
        "name": "CZ-8A R/B",
        "group": "last-30-days",
        "lat": 11.887674715372908,
        "lon": -105.93958787917545,
        "alt_km": 715.4613892018897,
        "timestamp": "2025-12-20T05:41:48.744267+00:00",
        "meta_object_name": "CZ-8A R/B",
        "meta_object_id": "2025-285K",
        "meta_epoch": "2025-12-19T15:31:39.014112",
        "meta_mean_motion": 14.3050431,
        "meta_eccentricity": 0.0119269,
        "meta_inclination": 50.0075,
        "meta_ra_of_asc_node": 86.7522,
        "meta_arg_of_pericenter": 131.0965,
        "meta_mean_anomaly": 230.0323,
        "meta_ephemeris_type": 0,
        "meta_classification_type": "U",
        "meta_norad_cat_id": 66924,
        "meta_element_set_no": 999,
        "meta_rev_at_epoch": 191,
        "meta_bstar": 4.8048e-05,
        "meta_mean_motion_dot": -3e-07,
        "meta_mean_motion_ddot": 0,
        "tle_line1": "1 66924U 25285K   25353.64697933 -.00000030  00000+0  48048-4 0  9995",
        "tle_line2": "2 66924  50.0075  86.7522 0119269 131.0965 230.0323 14.30504310  1914"
      },
      "geometry": {
        "type": "Point",
        "coordinates": [
          -105.93958787917545,
          11.887674715372908
        ]
      }
    }
  ]
}